{"type": "FeatureCollection", "features": [ {"type": "Feature", "properties": {"norad_id": 67060, "name": "HULIANWANG DIGUI-120", "group": "last-30-days", "lat": -47.04422660227226, "lon": -111.40689470060353, "alt_km": 801.1346145857024, "timestamp": "2025-12-26T18:39:31.000363+00:00", "meta": {"OBJECT_NAME": "HULIANWANG DIGUI-120", "OBJECT_ID": "2025-295B", "EPOCH": "2025-12-23T18:39:46.505376", "MEAN_MOTION": 14.25711377, "ECCENTRICITY": 0.0013178, "INCLINATION": 50.0058, "RA_OF_ASC_NODE": 325.6343, "ARG_OF_PERICENTER": 286.4479, "MEAN_ANOMALY": 73.4987, "EPHEMERIS_TYPE": 0, "CLASSIFICATION_TYPE": "U", "NORAD_CAT_ID": 67060, "ELEMENT_SET_NO": 999, "REV_AT_EPOCH": 169, "BSTAR": 6.7209387e-05, "MEAN_MOTION_DOT": 1e-08, "MEAN_MOTION_DDOT": 0}, "tle": {"line1": "1 67060U 25295B   25357.77762159  .00000001  00000+0  67209-4 0  9996", "line2": "2 67060  50.0058 325.6343 0013178 286.4479  73.4987 14.25711377  1697"}}, "geometry": {"type": "Point", "coordinates": [-111.40689470060353, -47.04422660227226]}}, {"type": "Feature", "properties": {"norad_id": 67061, "name": "HULIANWANG DIGUI-121", "group": "last-30-days", "lat": -49.845134035993055, "lon": -131.34817572536505, "alt_km": 803.8554820482041, "timestamp": "2025-12-26T18:39:31.000373+00:00", "meta": {"OBJECT_NAME": "HULIANWANG DIGUI-121", "OBJECT_ID": "2025-295C", "EPOCH": "2025-12-23T10:16:36.437664", "MEAN_MOTION": 14.25038967, "ECCENTRICITY": 0.00134061, "INCLINATION": 50.0019, "RA_OF_ASC_NODE": 327.1083, "ARG_OF_PERICENTER": 283.4183, "MEAN_ANOMALY": 76.5236, "EPHEMERIS_TYPE": 0, "CLASSIFICATION_TYPE": "U", "NORAD_CAT_ID": 67061, "ELEMENT_SET_NO": 999, "REV_AT_EPOCH": 164, "BSTAR": -3.3550159e-05, "MEAN_MOTION_DOT": -2.39e-06, "MEAN_MOTION_DDOT": 0}, "tle": {"line1": "1 67061U 25295C   25357.42819951 -.00000239  00000+0 -33550-4 0  9999", "line2": "2 67061  50.0019 327.1083 0013406 283.4183  76.5236 14.25038967  1649"}}, "geometry": {"type": "Point", "coordinates": [-131.34817572536505, -49.845134035993055]}}, {"type": "Feature", "properties": {"norad_id": 67062, "name": "HULIANWANG DIGUI-122", "group": "last-30-days", "lat": -46.16661519364673, "lon": -108.0136064101298, "alt_km": 801.0684622633753, "timestamp": "2025-12-26T18:39:31.000384+00:00", "meta": {"OBJECT_NAME": "HULIANWANG DIGUI-122", "OBJECT_ID": "2025-295D", "EPOCH": "2025-12-24T16:31:18.472800", "MEAN_MOTION": 14.25758016, "ECCENTRICITY": 0.00131642, "INCLINATION": 50.0052, "RA_OF_ASC_NODE": 321.783, "ARG_OF_PERICENTER": 295.5417, "MEAN_ANOMALY": 64.4135, "EPHEMERIS_TYPE": 0, "CLASSIFICATION_TYPE": "U", "NORAD_CAT_ID": 67062, "ELEMENT_SET_NO": 999, "REV_AT_EPOCH": 182, "BSTAR": 7.4037124e-05, "MEAN_MOTION_DOT": 1.7e-07, "MEAN_MOTION_DDOT": 0}, "tle": {"line1": "1 67062U 25295D   25358.68840825  .00000017  00000+0  74037-4 0  9990", "line2": "2 67062  50.0052 321.7830 0013164 295.5417  64.4135 14.25758016  1820"}}, "geometry": {"type": "Point", "coordinates": [-108.0136064101298, -46.16661519364673]}}, {"type": "Feature", "properties": {"norad_id": 67063, "name": "HULIANWANG DIGUI-123", "group": "last-30-days", "lat": -43.16862146047824, "lon": -99.00031703189063, "alt_km": 800.7916917456278, "timestamp": "2025-12-26T18:39:31.000394+00:00", "meta": {"OBJECT_NAME": "HULIANWANG DIGUI-123", "OBJECT_ID": "2025-295E", "EPOCH": "2025-12-23T18:37:38.191872", "MEAN_MOTION": 14.25890271, "ECCENTRICITY": 0.00124733, "INCLINATION": 50.0059, "RA_OF_ASC_NODE": 325.6275, "ARG_OF_PERICENTER": 291.5304, "MEAN_ANOMALY": 68.428, "EPHEMERIS_TYPE": 0, "CLASSIFICATION_TYPE": "U", "NORAD_CAT_ID": 67063, "ELEMENT_SET_NO": 999, "REV_AT_EPOCH": 169, "BSTAR": 6.4661609e-05, "MEAN_MOTION_DOT": -5e-08, "MEAN_MOTION_DDOT": 0}, "tle": {"line1": "1 67063U 25295E   25357.77613648 -.00000005  00000+0  64662-4 0  9992", "line2": "2 67063  50.0059 325.6275 0012473 291.5304  68.4280 14.25890271  1697"}}, "geometry": {"type": "Point", "coordinates": [-99.00031703189063, -43.16862146047824]}}, {"type": "Feature", "properties": {"norad_id": 67064, "name": "HULIANWANG DIGUI-124", "group": "last-30-days", "lat": -41.60918703462914, "lon": -95.28794678848789, "alt_km": 800.7621510551162, "timestamp": "2025-12-26T18:39:31.000403+00:00", "meta": {"OBJECT_NAME": "HULIANWANG DIGUI-124", "OBJECT_ID": "2025-295F", "EPOCH": "2025-12-22T05:36:45.096192", "MEAN_MOTION": 14.25948838, "ECCENTRICITY": 0.00121422, "INCLINATION": 50.0035, "RA_OF_ASC_NODE": 332.1235, "ARG_OF_PERICENTER": 280.5756, "MEAN_ANOMALY": 79.379, "EPHEMERIS_TYPE": 0, "CLASSIFICATION_TYPE": "U", "NORAD_CAT_ID": 67064, "ELEMENT_SET_NO": 999, "REV_AT_EPOCH": 147, "BSTAR": -0.00021789546, "MEAN_MOTION_DOT": -6.84e-06, "MEAN_MOTION_DDOT": 0}, "tle": {"line1": "1 67064U 25295F   25356.23385528 -.00000684  00000+0 -21790-3 0  9994", "line2": "2 67064  50.0035 332.1235 0012142 280.5756  79.3790 14.25948838  1479"}}, "geometry": {"type": "Point", "coordinates": [-95.28794678848789, -41.60918703462914]}}, {"type": "Feature", "properties": {"norad_id": 67065, "name": "HULIANWANG DIGUI-125", "group": "last-30-days", "lat": -41.43974671995162, "lon": -94.91545111832659, "alt_km": 800.6157241190858, "timestamp": "2025-12-26T18:39:31.000414+00:00", "meta": {"OBJECT_NAME": "HULIANWANG DIGUI-125", "OBJECT_ID": "2025-295G", "EPOCH": "2025-12-24T03:01:26.356800", "MEAN_MOTION": 14.25956035, "ECCENTRICITY": 0.00122653, "INCLINATION": 50.0009, "RA_OF_ASC_NODE": 324.1276, "ARG_OF_PERICENTER": 293.4537, "MEAN_ANOMALY": 66.5087, "EPHEMERIS_TYPE": 0, "CLASSIFICATION_TYPE": "U", "NORAD_CAT_ID": 67065, "ELEMENT_SET_NO": 999, "REV_AT_EPOCH": 174, "BSTAR": 6.5028559e-05, "MEAN_MOTION_DOT": -4e-08, "MEAN_MOTION_DDOT": 0}, "tle": {"line1": "1 67065U 25295G   25358.12599950 -.00000004  00000+0  65029-4 0  9990", "line2": "2 67065  50.0009 324.1276 0012265 293.4537  66.5087 14.25956035  1748"}}, "geometry": {"type": "Point", "coordinates": [-94.91545111832659, -41.43974671995162]}}, {"type": "Feature", "properties": {"norad_id": 67066, "name": "HULIANWANG DIGUI-126", "group": "last-30-days", "lat": -37.15785505460959, "lon": -86.60959705745051, "alt_km": 800.6034074531426, "timestamp": "2025-12-26T18:39:31.000426+00:00", "meta": {"OBJECT_NAME": "HULIANWANG DIGUI-126", "OBJECT_ID": "2025-295H", "EPOCH": "2025-12-24T16:26:54.676320", "MEAN_MOTION": 14.26099416, "ECCENTRICITY": 0.00114214, "INCLINATION": 50.0012, "RA_OF_ASC_NODE": 321.7514, "ARG_OF_PERICENTER": 292.7089, "MEAN_ANOMALY": 67.2617, "EPHEMERIS_TYPE": 0, "CLASSIFICATION_TYPE": "U", "NORAD_CAT_ID": 67066, "ELEMENT_SET_NO": 999, "REV_AT_EPOCH": 182, "BSTAR": 8.0653336e-05, "MEAN_MOTION_DOT": 3.4e-07, "MEAN_MOTION_DDOT": 0}, "tle": {"line1": "1 67066U 25295H   25358.68535505  .00000034  00000+0  80653-4 0  9990", "line2": "2 67066  50.0012 321.7514 0011421 292.7089  67.2617 14.26099416  1826"}}, "geometry": {"type": "Point", "coordinates": [-86.60959705745051, -37.15785505460959]}}, {"type": "Feature", "properties": {"norad_id": 67067, "name": "HULIANWANG DIGUI-127", "group": "last-30-days", "lat": -32.43409967237427, "lon": -79.33820096630068, "alt_km": 800.3428699462838, "timestamp": "2025-12-26T18:39:31.000436+00:00", "meta": {"OBJECT_NAME": "HULIANWANG DIGUI-127", "OBJECT_ID": "2025-295J", "EPOCH": "2025-12-22T15:39:07.411968", "MEAN_MOTION": 14.26251195, "ECCENTRICITY": 0.00108509, "INCLINATION": 50.0053, "RA_OF_ASC_NODE": 330.3407, "ARG_OF_PERICENTER": 289.3117, "MEAN_ANOMALY": 70.6623, "EPHEMERIS_TYPE": 0, "CLASSIFICATION_TYPE": "U", "NORAD_CAT_ID": 67067, "ELEMENT_SET_NO": 999, "REV_AT_EPOCH": 153, "BSTAR": -0.00027534515, "MEAN_MOTION_DOT": -8.25e-06, "MEAN_MOTION_DDOT": 0}, "tle": {"line1": "1 67067U 25295J   25356.65216912 -.00000825  00000+0 -27535-3 0  9993", "line2": "2 67067  50.0053 330.3407 0010850 289.3117  70.6623 14.26251195  1535"}}, "geometry": {"type": "Point", "coordinates": [-79.33820096630068, -32.43409967237427]}}, {"type": "Feature", "properties": {"norad_id": 67068, "name": "CZ-12 R/B", "group": "last-30-days", "lat": 19.811438697364007, "lon": -30.97214940721094, "alt_km": 790.4937820534806, "timestamp": "2025-12-26T18:39:31.000448+00:00", "meta": {"OBJECT_NAME": "CZ-12 R/B", "OBJECT_ID": "2025-295K", "EPOCH": "2025-12-26T08:33:02.496096", "MEAN_MOTION": 14.41130432, "ECCENTRICITY": 0.00569013, "INCLINATION": 49.9942, "RA_OF_ASC_NODE": 313.2422, "ARG_OF_PERICENTER": 184.7305, "MEAN_ANOMALY": 175.3084, "EPHEMERIS_TYPE": 0, "CLASSIFICATION_TYPE": "U", "NORAD_CAT_ID": 67068, "ELEMENT_SET_NO": 999, "REV_AT_EPOCH": 207, "BSTAR": 3.947533e-05, "MEAN_MOTION_DOT": -3.8e-07, "MEAN_MOTION_DDOT": 0}, "tle": {"line1": "1 67068U 25295K   25360.35627889 -.00000038  00000+0  39475-4 0  9997", "line2": "2 67068  49.9942 313.2422 0056901 184.7305 175.3084 14.41130432  2072"}}, "geometry": {"type": "Point", "coordinates": [-30.97214940721094, 19.811438697364007]}}, {"type": "Feature", "properties": {"norad_id": 67069, "name": "XIWANG-5 02", "group": "last-30-days", "lat": -40.832542233016575, "lon": -57.780686505173676, "alt_km": 527.0081533007842, "timestamp": "2025-12-26T18:39:31.000459+00:00", "meta": {"OBJECT_NAME": "XIWANG-5 02", "OBJECT_ID": "2025-296A", "EPOCH": "2025-12-23T12:00:44.103744", "MEAN_MOTION": 15.16891516, "ECCENTRICITY": 0.00145566, "INCLINATION": 41.3523, "RA_OF_ASC_NODE": 40.1941, "ARG_OF_PERICENTER": 102.8792, "MEAN_ANOMALY": 257.3656, "EPHEMERIS_TYPE": 0, "CLASSIFICATION_TYPE": "U", "NORAD_CAT_ID": 67069, "ELEMENT_SET_NO": 999, "REV_AT_EPOCH": 159, "BSTAR": 0.00060249038, "MEAN_MOTION_DOT": 0.00011945, "MEAN_MOTION_DDOT": 0}, "tle": {"line1": "1 67069U 25296A   25357.50051046  .00011945  00000+0  60249-3 0  9998", "line2": "2 67069  41.3523  40.1941 0014556 102.8792 257.3656 15.16891516  1599"}}, "geometry": {"type": "Point", "coordinates": [-57.780686505173676, -40.832542233016575]}}]}